{"fetched_at":"2026-03-29T16:36:15Z","count":15609,"tles":[{"name":"ONEWEB-0236","line1":"1 48797U 21045AG  26087.78323419 -.00000038  00000+0 -13461-3 0  9997","line2":"2 48797  87.8922 275.2584 0001617  89.1007 271.0309 13.15549475233684","category":"Other"}]}